[{"OBJECT_NAME":"ONEWEB-0411","OBJECT_ID":"2022-012B","EPOCH":"2025-08-11T22:01:40.542240","MEAN_MOTION":13.1037549,"ECCENTRICITY":0.0001338,"INCLINATION":87.8788,"RA_OF_ASC_NODE":97.9535,"ARG_OF_PERICENTER":62.4877,"MEAN_ANOMALY":297.6386,"EPHEMERIS_TYPE":0,"CLASSIFICATION_TYPE":"U","NORAD_CAT_ID":51623,"ELEMENT_SET_NO":999,"REV_AT_EPOCH":16878,"BSTAR":-0.0014804,"MEAN_MOTION_DOT":-5.04e-6,"MEAN_MOTION_DDOT":0},{"OBJECT_NAME":"ONEWEB-0415","OBJECT_ID":"2022-012C","EPOCH":"2025-08-12T01:36:48.067200","MEAN_MOTION":13.10374818,"ECCENTRICITY":0.0001486,"INCLINATION":87.8783,"RA_OF_ASC_NODE":97.9267,"ARG_OF_PERICENTER":72.0942,"MEAN_ANOMALY":288.0347,"EPHEMERIS_TYPE":0,"CLASSIFICATION_TYPE":"U","NORAD_CAT_ID":51624,"ELEMENT_SET_NO":999,"REV_AT_EPOCH":17008,"BSTAR":-0.0017543,"MEAN_MOTION_DOT":-6.0e-6,"MEAN_MOTION_DDOT":0},{"OBJECT_NAME":"ONEWEB-0416","OBJECT_ID":"2022-012D","EPOCH":"2025-08-11T22:13:38.187552","MEAN_MOTION":13.10376906,"ECCENTRICITY":0.0001704,"INCLINATION":87.8788,"RA_OF_ASC_NODE":97.9734,"ARG_OF_PERICENTER":79.3778,"MEAN_ANOMALY":280.7541,"EPHEMERIS_TYPE":0,"CLASSIFICATION_TYPE":"U","NORAD_CAT_ID":51625,"ELEMENT_SET_NO":999,"REV_AT_EPOCH":16882,"BSTAR":-0.00039966,"MEAN_MOTION_DOT":-1.27e-6,"MEAN_MOTION_DDOT":0},{"OBJECT_NAME":"ONEWEB-0422","OBJECT_ID":"2022-012E","EPOCH":"2025-08-12T13:07:29.677728","MEAN_MOTION":13.17649002,"ECCENTRICITY":0.0002233,"INCLINATION":87.9031,"RA_OF_ASC_NODE":67.2661,"ARG_OF_PERICENTER":69.5888,"MEAN_ANOMALY":290.5484,"EPHEMERIS_TYPE":0,"CLASSIFICATION_TYPE":"U","NORAD_CAT_ID":51626,"ELEMENT_SET_NO":999,"REV_AT_EPOCH":17444,"BSTAR":1.0691e-5,"MEAN_MOTION_DOT":1.7e-7,"MEAN_MOTION_DDOT":0},{"OBJECT_NAME":"ONEWEB-0423","OBJECT_ID":"2022-012F","EPOCH":"2025-08-12T07:29:44.102400","MEAN_MOTION":13.17648665,"ECCENTRICITY":0.0001869,"INCLINATION":87.9034,"RA_OF_ASC_NODE":67.3212,"ARG_OF_PERICENTER":86.0208,"MEAN_ANOMALY":274.1137,"EPHEMERIS_TYPE":0,"CLASSIFICATION_TYPE":"U","NORAD_CAT_ID":51627,"ELEMENT_SET_NO":999,"REV_AT_EPOCH":17431,"BSTAR":0.00033532,"MEAN_MOTION_DOT":1.43e-6,"MEAN_MOTION_DDOT":0},{"OBJECT_NAME":"ONEWEB-0425","OBJECT_ID":"2022-012G","EPOCH":"2025-08-11T22:27:59.895360","MEAN_MOTION":13.10376526,"ECCENTRICITY":0.0001876,"INCLINATION":87.8786,"RA_OF_ASC_NODE":97.941,"ARG_OF_PERICENTER":88.5442,"MEAN_ANOMALY":271.59,"EPHEMERIS_TYPE":0,"CLASSIFICATION_TYPE":"U","NORAD_CAT_ID":51628,"ELEMENT_SET_NO":999,"REV_AT_EPOCH":16882,"BSTAR":0.0012017,"MEAN_MOTION_DOT":4.32e-6,"MEAN_MOTION_DDOT":0},{"OBJECT_NAME":"ONEWEB-0428","OBJECT_ID":"2022-012H","EPOCH":"2025-08-12T01:39:11.566368","MEAN_MOTION":13.10375135,"ECCENTRICITY":0.0001796,"INCLINATION":87.8786,"RA_OF_ASC_NODE":97.9367,"ARG_OF_PERICENTER":72.8773,"MEAN_ANOMALY":287.2551,"EPHEMERIS_TYPE":0,"CLASSIFICATION_TYPE":"U","NORAD_CAT_ID":51629,"ELEMENT_SET_NO":999,"REV_AT_EPOCH":17008,"BSTAR":-0.0017238,"MEAN_MOTION_DOT":-5.89e-6,"MEAN_MOTION_DDOT":0},{"OBJECT_NAME":"ONEWEB-0431","OBJECT_ID":"2022-012J","EPOCH":"2025-08-11T21:16:05.156256","MEAN_MOTION":13.10376876,"ECCENTRICITY":0.0001515,"INCLINATION":87.8784,"RA_OF_ASC_NODE":97.9432,"ARG_OF_PERICENTER":56.8248,"MEAN_ANOMALY":303.3024,"EPHEMERIS_TYPE":0,"CLASSIFICATION_TYPE":"U","NORAD_CAT_ID":51630,"ELEMENT_SET_NO":999,"REV_AT_EPOCH":16883,"BSTAR":-0.0035834,"MEAN_MOTION_DOT":-1.238e-5,"MEAN_MOTION_DDOT":0},{"OBJECT_NAME":"ONEWEB-0434","OBJECT_ID":"2022-012K","EPOCH":"2025-08-12T02:12:41.461920","MEAN_MOTION":13.10375504,"ECCENTRICITY":0.0002117,"INCLINATION":87.8789,"RA_OF_ASC_NODE":97.9447,"ARG_OF_PERICENTER":95.7213,"MEAN_ANOMALY":264.4155,"EPHEMERIS_TYPE":0,"CLASSIFICATION_TYPE":"U","NORAD_CAT_ID":51631,"ELEMENT_SET_NO":999,"REV_AT_EPOCH":17013,"BSTAR":0.0013665,"MEAN_MOTION_DOT":4.9e-6,"MEAN_MOTION_DDOT":0},{"OBJECT_NAME":"ONEWEB-0435","OBJECT_ID":"2022-012L","EPOCH":"2025-08-11T22:44:44.230560","MEAN_MOTION":13.10372958,"ECCENTRICITY":0.0002019,"INCLINATION":87.8784,"RA_OF_ASC_NODE":97.9659,"ARG_OF_PERICENTER":69.0578,"MEAN_ANOMALY":291.0765,"EPHEMERIS_TYPE":0,"CLASSIFICATION_TYPE":"U","NORAD_CAT_ID":51632,"ELEMENT_SET_NO":999,"REV_AT_EPOCH":16881,"BSTAR":0.0020339,"MEAN_MOTION_DOT":7.23e-6,"MEAN_MOTION_DDOT":0},{"OBJECT_NAME":"ONEWEB-0436","OBJECT_ID":"2022-012M","EPOCH":"2025-08-11T22:10:50.521440","MEAN_MOTION":13.17647948,"ECCENTRICITY":0.0001821,"INCLINATION":87.9023,"RA_OF_ASC_NODE":67.3828,"ARG_OF_PERICENTER":78.6837,"MEAN_ANOMALY":281.4499,"EPHEMERIS_TYPE":0,"CLASSIFICATION_TYPE":"U","NORAD_CAT_ID":51633,"ELEMENT_SET_NO":999,"REV_AT_EPOCH":17295,"BSTAR":-4.7721e-5,"MEAN_MOTION_DOT":-6.0e-8,"MEAN_MOTION_DDOT":0},{"OBJECT_NAME":"ONEWEB-0438","OBJECT_ID":"2022-012N","EPOCH":"2025-08-12T02:00:43.461504","MEAN_MOTION":13.10377136,"ECCENTRICITY":0.0001807,"INCLINATION":87.8787,"RA_OF_ASC_NODE":97.9395,"ARG_OF_PERICENTER":84.1921,"MEAN_ANOMALY":275.9412,"EPHEMERIS_TYPE":0,"CLASSIFICATION_TYPE":"U","NORAD_CAT_ID":51634,"ELEMENT_SET_NO":999,"REV_AT_EPOCH":17015,"BSTAR":0.00030384,"MEAN_MOTION_DOT":1.19e-6,"MEAN_MOTION_DDOT":0},{"OBJECT_NAME":"ONEWEB-0439","OBJECT_ID":"2022-012P","EPOCH":"2025-08-11T22:25:36.035904","MEAN_MOTION":13.10376493,"ECCENTRICITY":0.0001872,"INCLINATION":87.8787,"RA_OF_ASC_NODE":97.9575,"ARG_OF_PERICENTER":78.4912,"MEAN_ANOMALY":281.6425,"EPHEMERIS_TYPE":0,"CLASSIFICATION_TYPE":"U","NORAD_CAT_ID":51635,"ELEMENT_SET_NO":999,"REV_AT_EPOCH":16882,"BSTAR":0.00091657,"MEAN_MOTION_DOT":3.33e-6,"MEAN_MOTION_DDOT":0},{"OBJECT_NAME":"ONEWEB-0442","OBJECT_ID":"2022-012Q","EPOCH":"2025-08-12T07:06:38.167776","MEAN_MOTION":13.17650511,"ECCENTRICITY":0.0001757,"INCLINATION":87.9024,"RA_OF_ASC_NODE":67.3622,"ARG_OF_PERICENTER":107.4474,"MEAN_ANOMALY":252.685,"EPHEMERIS_TYPE":0,"CLASSIFICATION_TYPE":"U","NORAD_CAT_ID":51636,"ELEMENT_SET_NO":999,"REV_AT_EPOCH":17428,"BSTAR":3.1425e-5,"MEAN_MOTION_DOT":2.5e-7,"MEAN_MOTION_DDOT":0},{"OBJECT_NAME":"ONEWEB-0443","OBJECT_ID":"2022-012R","EPOCH":"2025-08-11T15:10:26.406912","MEAN_MOTION":13.17656727,"ECCENTRICITY":0.0002112,"INCLINATION":87.9021,"RA_OF_ASC_NODE":67.5035,"ARG_OF_PERICENTER":92.6032,"MEAN_ANOMALY":267.5341,"EPHEMERIS_TYPE":0,"CLASSIFICATION_TYPE":"U","NORAD_CAT_ID":51637,"ELEMENT_SET_NO":999,"REV_AT_EPOCH":17295,"BSTAR":0.0025063,"MEAN_MOTION_DOT":9.86e-6,"MEAN_MOTION_DDOT":0},{"OBJECT_NAME":"ONEWEB-0444","OBJECT_ID":"2022-012S","EPOCH":"2025-08-12T01:51:09.190944","MEAN_MOTION":13.10377176,"ECCENTRICITY":0.0001897,"INCLINATION":87.8786,"RA_OF_ASC_NODE":97.9301,"ARG_OF_PERICENTER":76.7072,"MEAN_ANOMALY":283.4267,"EPHEMERIS_TYPE":0,"CLASSIFICATION_TYPE":"U","NORAD_CAT_ID":51638,"ELEMENT_SET_NO":999,"REV_AT_EPOCH":17014,"BSTAR":-0.00060422,"MEAN_MOTION_DOT":-1.98e-6,"MEAN_MOTION_DDOT":0},{"OBJECT_NAME":"ONEWEB-0445","OBJECT_ID":"2022-012T","EPOCH":"2025-08-11T22:42:20.267424","MEAN_MOTION":13.10373071,"ECCENTRICITY":0.0001607,"INCLINATION":87.878,"RA_OF_ASC_NODE":97.9082,"ARG_OF_PERICENTER":82.4105,"MEAN_ANOMALY":277.7204,"EPHEMERIS_TYPE":0,"CLASSIFICATION_TYPE":"U","NORAD_CAT_ID":51639,"ELEMENT_SET_NO":999,"REV_AT_EPOCH":16884,"BSTAR":0.0019741,"MEAN_MOTION_DOT":7.02e-6,"MEAN_MOTION_DDOT":0}]
