ONEWEB-0411             
1 51623U 22012B   25223.91783035 -.00000504  00000+0 -14804-2 0  9993
2 51623  87.8788  97.9535 0001338  62.4877 297.6386 13.10375490168786
ONEWEB-0415             
1 51624U 22012C   25224.06722300 -.00000600  00000+0 -17543-2 0  9999
2 51624  87.8783  97.9267 0001486  72.0942 288.0347 13.10374818170088
ONEWEB-0416             
1 51625U 22012D   25223.92613643 -.00000127  00000+0 -39966-3 0  9991
2 51625  87.8788  97.9734 0001704  79.3778 280.7541 13.10376906168827
ONEWEB-0422             
1 51626U 22012E   25224.54687127  .00000017  00000+0  10691-4 0  9990
2 51626  87.9031  67.2661 0002233  69.5888 290.5484 13.17649002174447
ONEWEB-0423             
1 51627U 22012F   25224.31231600  .00000143  00000+0  33532-3 0  9995
2 51627  87.9034  67.3212 0001869  86.0208 274.1137 13.17648665174311
ONEWEB-0425             
1 51628U 22012G   25223.93610990  .00000432  00000+0  12017-2 0  9991
2 51628  87.8786  97.9410 0001876  88.5442 271.5900 13.10376526168824
ONEWEB-0428             
1 51629U 22012H   25224.06888387 -.00000589  00000+0 -17238-2 0  9999
2 51629  87.8786  97.9367 0001796  72.8773 287.2551 13.10375135170082
ONEWEB-0431             
1 51630U 22012J   25223.88617079 -.00001238  00000+0 -35834-2 0  9992
2 51630  87.8784  97.9432 0001515  56.8248 303.3024 13.10376876168831
ONEWEB-0434             
1 51631U 22012K   25224.09214655  .00000490  00000+0  13665-2 0  9995
2 51631  87.8789  97.9447 0002117  95.7213 264.4155 13.10375504170131
ONEWEB-0435             
1 51632U 22012L   25223.94773415  .00000723  00000+0  20339-2 0  9998
2 51632  87.8784  97.9659 0002019  69.0578 291.0765 13.10372958168816
ONEWEB-0436             
1 51633U 22012M   25223.92419585 -.00000006  00000+0 -47721-4 0  9994
2 51633  87.9023  67.3828 0001821  78.6837 281.4499 13.17647948172955
ONEWEB-0438             
1 51634U 22012N   25224.08383636  .00000119  00000+0  30384-3 0  9999
2 51634  87.8787  97.9395 0001807  84.1921 275.9412 13.10377136170155
ONEWEB-0439             
1 51635U 22012P   25223.93444486  .00000333  00000+0  91657-3 0  9992
2 51635  87.8787  97.9575 0001872  78.4912 281.6425 13.10376493168828
ONEWEB-0442             
1 51636U 22012Q   25224.29627509  .00000025  00000+0  31425-4 0  9998
2 51636  87.9024  67.3622 0001757 107.4474 252.6850 13.17650511174286
ONEWEB-0443             
1 51637U 22012R   25223.63225008  .00000986  00000+0  25063-2 0  9999
2 51637  87.9021  67.5035 0002112  92.6032 267.5341 13.17656727172952
ONEWEB-0444             
1 51638U 22012S   25224.07718971 -.00000198  00000+0 -60422-3 0  9991
2 51638  87.8786  97.9301 0001897  76.7072 283.4267 13.10377176170143
ONEWEB-0445             
1 51639U 22012T   25223.94606791  .00000702  00000+0  19741-2 0  9999
2 51639  87.8780  97.9082 0001607  82.4105 277.7204 13.10373071168845
